JILIN-1                 
1 40961U 15057D   26201.92694839  .00000473  00000+0  71761-4 0  9998
2 40961  97.6523 199.6215 0017714 148.8509 211.3757 14.78206799580598
JILIN-1 03              
1 41914U 17002B   26201.96562500  .00009964  00000+0  23295-3 0  9994
2 41914  97.1958 208.5926 0007533  63.9715 296.2308 15.42324939527063
JILIN-1 04              
1 43022U 17074A   26201.94142635  .00010120  00000+0  22977-3 0  9998
2 43022  97.4874 312.4780 0005147  84.9914 275.1920 15.43228762479476
JILIN-1 05              
1 43023U 17074B   26201.90814405  .00005765  00000+0  17577-3 0  9995
2 43023  97.4878 308.5332 0006592 108.9725 251.2233 15.34340132479177
JILIN-1 06              
1 43024U 17074C   26201.88515036  .00004504  00000+0  13913-3 0  9991
2 43024  97.4802 305.4736 0008355 117.3901 242.8193 15.34038194479003
JILIN-1 07              
1 43159U 18008E   26201.92618024  .00006066  00000+0  17961-3 0  9996
2 43159  97.1771 220.9655 0006274 302.3546  57.7090 15.35222043470171
JILIN-1 08              
1 43160U 18008F   26201.95055869  .00004139  00000+0  12793-3 0  9990
2 43160  97.1807 220.2669 0004652 328.3908  31.7056 15.34050015470125
JILIN-1 09              
1 43943U 19005B   26201.93704510  .00002992  00000+0  13902-3 0  9997
2 43943  97.4740 296.6183 0001795  22.6808 337.4507 15.20770048414270
JILIN-1 10              
1 43946U 19005E   26201.89892047  .00003866  00000+0  15290-3 0  9991
2 43946  97.4793 300.7129 0009074 151.4168 208.7569 15.26045186414458
