{"fetched_at":"2026-07-21T07:06:58.341Z","source":"https://celestrak.org/NORAD/elements/gp.php?NAME=JILIN&FORMAT=JSON","constellation":"jilin-1-early","records":[{"OBJECT_NAME":"JILIN-1","OBJECT_ID":"2015-057D","EPOCH":"2026-07-20T22:14:48.340896","CLASSIFICATION_TYPE":"U","MEAN_MOTION":14.78206799,"ECCENTRICITY":0.00177148,"INCLINATION":97.6523,"RA_OF_ASC_NODE":199.6215,"ARG_OF_PERICENTER":148.8509,"MEAN_ANOMALY":211.3757,"EPHEMERIS_TYPE":0,"NORAD_CAT_ID":40961,"ELEMENT_SET_NO":999,"REV_AT_EPOCH":58059,"BSTAR":0.000071760676,"MEAN_MOTION_DOT":0.00000473,"MEAN_MOTION_DDOT":0},{"OBJECT_NAME":"JILIN-1 03","OBJECT_ID":"2017-002B","EPOCH":"2026-07-20T23:10:30.000000","CLASSIFICATION_TYPE":"U","MEAN_MOTION":15.42324939,"ECCENTRICITY":0.00075336,"INCLINATION":97.1958,"RA_OF_ASC_NODE":208.5926,"ARG_OF_PERICENTER":63.9715,"MEAN_ANOMALY":296.2308,"EPHEMERIS_TYPE":0,"NORAD_CAT_ID":41914,"ELEMENT_SET_NO":999,"REV_AT_EPOCH":52706,"BSTAR":0.00023294554,"MEAN_MOTION_DOT":0.00009964,"MEAN_MOTION_DDOT":0},{"OBJECT_NAME":"JILIN-1 04","OBJECT_ID":"2017-074A","EPOCH":"2026-07-20T22:35:39.236640","CLASSIFICATION_TYPE":"U","MEAN_MOTION":15.43228762,"ECCENTRICITY":0.00051474,"INCLINATION":97.4874,"RA_OF_ASC_NODE":312.478,"ARG_OF_PERICENTER":84.9914,"MEAN_ANOMALY":275.192,"EPHEMERIS_TYPE":0,"NORAD_CAT_ID":43022,"ELEMENT_SET_NO":999,"REV_AT_EPOCH":47947,"BSTAR":0.00022977224,"MEAN_MOTION_DOT":0.0001012,"MEAN_MOTION_DDOT":0},{"OBJECT_NAME":"JILIN-1 05","OBJECT_ID":"2017-074B","EPOCH":"2026-07-20T21:47:43.645920","CLASSIFICATION_TYPE":"U","MEAN_MOTION":15.34340132,"ECCENTRICITY":0.00065926,"INCLINATION":97.4878,"RA_OF_ASC_NODE":308.5332,"ARG_OF_PERICENTER":108.9725,"MEAN_ANOMALY":251.2233,"EPHEMERIS_TYPE":0,"NORAD_CAT_ID":43023,"ELEMENT_SET_NO":999,"REV_AT_EPOCH":47917,"BSTAR":0.00017576548,"MEAN_MOTION_DOT":0.00005765,"MEAN_MOTION_DDOT":0},{"OBJECT_NAME":"JILIN-1 06","OBJECT_ID":"2017-074C","EPOCH":"2026-07-20T21:14:36.991104","CLASSIFICATION_TYPE":"U","MEAN_MOTION":15.34038194,"ECCENTRICITY":0.00083554,"INCLINATION":97.4802,"RA_OF_ASC_NODE":305.4736,"ARG_OF_PERICENTER":117.3901,"MEAN_ANOMALY":242.8193,"EPHEMERIS_TYPE":0,"NORAD_CAT_ID":43024,"ELEMENT_SET_NO":999,"REV_AT_EPOCH":47900,"BSTAR":0.00013912539,"MEAN_MOTION_DOT":0.00004504,"MEAN_MOTION_DDOT":0},{"OBJECT_NAME":"JILIN-1 07","OBJECT_ID":"2018-008E","EPOCH":"2026-07-20T22:13:41.972736","CLASSIFICATION_TYPE":"U","MEAN_MOTION":15.35222043,"ECCENTRICITY":0.00062745,"INCLINATION":97.1771,"RA_OF_ASC_NODE":220.9655,"ARG_OF_PERICENTER":302.3546,"MEAN_ANOMALY":57.709,"EPHEMERIS_TYPE":0,"NORAD_CAT_ID":43159,"ELEMENT_SET_NO":999,"REV_AT_EPOCH":47017,"BSTAR":0.00017960593,"MEAN_MOTION_DOT":0.00006066,"MEAN_MOTION_DDOT":0},{"OBJECT_NAME":"JILIN-1 08","OBJECT_ID":"2018-008F","EPOCH":"2026-07-20T22:48:48.270816","CLASSIFICATION_TYPE":"U","MEAN_MOTION":15.34050015,"ECCENTRICITY":0.0004652,"INCLINATION":97.1807,"RA_OF_ASC_NODE":220.2669,"ARG_OF_PERICENTER":328.3908,"MEAN_ANOMALY":31.7056,"EPHEMERIS_TYPE":0,"NORAD_CAT_ID":43160,"ELEMENT_SET_NO":999,"REV_AT_EPOCH":47012,"BSTAR":0.00012793189,"MEAN_MOTION_DOT":0.00004139,"MEAN_MOTION_DDOT":0},{"OBJECT_NAME":"JILIN-1 09","OBJECT_ID":"2019-005B","EPOCH":"2026-07-20T22:29:20.696640","CLASSIFICATION_TYPE":"U","MEAN_MOTION":15.20770048,"ECCENTRICITY":0.00017957,"INCLINATION":97.474,"RA_OF_ASC_NODE":296.6183,"ARG_OF_PERICENTER":22.6808,"MEAN_ANOMALY":337.4507,"EPHEMERIS_TYPE":0,"NORAD_CAT_ID":43943,"ELEMENT_SET_NO":999,"REV_AT_EPOCH":41427,"BSTAR":0.00013902324,"MEAN_MOTION_DOT":0.00002992,"MEAN_MOTION_DDOT":0},{"OBJECT_NAME":"JILIN-1 10","OBJECT_ID":"2019-005E","EPOCH":"2026-07-20T21:34:26.728608","CLASSIFICATION_TYPE":"U","MEAN_MOTION":15.26045186,"ECCENTRICITY":0.00090744,"INCLINATION":97.4793,"RA_OF_ASC_NODE":300.7129,"ARG_OF_PERICENTER":151.4168,"MEAN_ANOMALY":208.7569,"EPHEMERIS_TYPE":0,"NORAD_CAT_ID":43946,"ELEMENT_SET_NO":999,"REV_AT_EPOCH":41445,"BSTAR":0.00015289716,"MEAN_MOTION_DOT":0.00003866,"MEAN_MOTION_DDOT":0}]}
